NORAD_CAT_ID,OBJECT_NAME,OBJECT_TYPE,EPOCH,MEAN_MOTION,ECCENTRICITY,INCLINATION,RA_OF_ASC_NODE,ARG_OF_PERICENTER,MEAN_ANOMALY,BSTAR,MEAN_MOTION_DOT,MEAN_MOTION_DDOT,TLE_LINE0,TLE_LINE1,TLE_LINE2,SEMIMAJOR_AXIS,PERIOD,APOGEE,PERIGEE,DECAYED
51770.0,STARLINK-3612,PAYLOAD,2022-12-25 18:01:48,15.08844807,0.000271,53.2161,191.1761,40.3804,319.7389,0.00018645,2.681e-05,0.0,0 STARLINK-3612,1 51770U 22017C   22359.75125030  .00002681  00000-0  18645-3 0  9990,2 51770  53.2161 191.1761 0002710  40.3804 319.7389 15.08844807 47438,6917.866,95.437,541.605,537.856,0.0
51770.0,STARLINK-3612,PAYLOAD,2022-12-25 19:37:11,15.08846535,0.0002756,53.215,190.8788,40.1381,319.9815,0.00021457,3.129e-05,0.0,0 STARLINK-3612,1 51770U 22017C   22359.81749202  .00003129  00000-0  21457-3 0  9993,2 51770  53.2150 190.8788 0002756  40.1381 319.9815 15.08846535 46007,6917.86,95.437,541.632,537.819,0.0
51770.0,STARLINK-3612,PAYLOAD,2022-12-26 16:17:12,15.08834967,0.0002813,53.2151,187.0129,42.00899999999999,318.1118,-3.4836e-05,-8.43e-06,0.0,0 STARLINK-3612,1 51770U 22017C   22360.67861840 -.00000843  00000-0 -34836-4 0  9990,2 51770  53.2151 187.0129 0002813  42.0090 318.1118 15.08834967 47573,6917.896,95.438,541.707,537.815,0.0
51770.0,STARLINK-3612,PAYLOAD,2022-12-27 11:21:49,15.08881815,0.0002694,53.216,183.4444,38.1502,321.968,-0.00050243,-8.286e-05,0.0,0 STARLINK-3612,1 51770U 22017C   22361.47348401 -.00008286  00000-0 -50243-3 0  9990,2 51770  53.2160 183.4444 0002694  38.1502 321.9680 15.08881815 47697,6917.753000000002,95.435,541.481,537.754,0.0
51770.0,STARLINK-3612,PAYLOAD,2022-12-27 19:18:45,15.08845721,0.0002813,53.216,181.9574,43.2563,316.865,6.7506e-05,7.86e-06,0.0,0 STARLINK-3612,1 51770U 22017C   22361.80469250  .00000786  00000-0  67506-4 0  9999,2 51770  53.2160 181.9574 0002813  43.2563 316.8650 15.08845721 46304,6917.863,95.437,541.674,537.7819999999998,0.0
51770.0,STARLINK-3612,PAYLOAD,2022-12-27 20:54:08,15.08846719,0.0002803,53.216,181.6602,43.4057,316.7156,5.384e-05,5.69e-06,0.0,0 STARLINK-3612,1 51770U 22017C   22361.87093219  .00000569  00000-0  53840-4 0  9999,2 51770  53.2160 181.6602 0002803  43.4057 316.7156 15.08846719 47750,6917.86,95.437,541.664,537.786,0.0
51770.0,STARLINK-3612,PAYLOAD,2022-12-28 11:12:36,15.08844253,0.0002763,53.2161,178.9836,44.1746,315.9467,0.00014399,2.004e-05,0.0,0 STARLINK-3612,1 51770U 22017C   22362.46709092  .00002004  00000-0  14399-3 0  9999,2 51770  53.2161 178.9836 0002763  44.1746 315.9467 15.08844253 46405,6917.8669999999975,95.437,541.644,537.821,0.0
51770.0,STARLINK-3612,PAYLOAD,2022-12-28 14:23:23,15.08839085,0.0002856,53.217,178.3872,40.4543,319.6661,8.492700000000001e-05,1.063e-05,0.0,0 STARLINK-3612,1 51770U 22017C   22362.59957624  .00001063  00000-0  84927-4 0  9998,2 51770  53.2170 178.3872 0002856  40.4543 319.6661 15.08839085 47861,6917.8830000000025,95.438,541.724,537.7719999999998,0.0
51770.0,STARLINK-3612,PAYLOAD,2022-12-29 12:38:47,15.08835747,0.000272,53.2166,174.2253,44.3182,315.8028,4.9678e-05,5.02e-06,0.0,0 STARLINK-3612,1 51770U 22017C   22363.52694171  .00000502  00000-0  49678-4 0  9998,2 51770  53.2166 174.2253 0002720  44.3182 315.8028 15.08835747 48009,6917.893,95.438,541.64,537.877,0.0
51770.0,STARLINK-3612,PAYLOAD,2022-12-30 04:32:38,15.08843513,0.0002776,53.2166,171.2519,45.0484,315.0733,6.8402e-05,8e-06,0.0,0 STARLINK-3612,1 51770U 22017C   22364.18933661  .00000800  00000-0  68402-4 0  9998,2 51770  53.2166 171.2519 0002776  45.0484 315.0733 15.08843513 48101,6917.87,95.437,541.655,537.814,0.0
51770.0,STARLINK-3612,PAYLOAD,2022-12-30 10:54:11,15.08839952,0.0002759,53.2164,170.0625,45.6079,314.5139,0.0001578,2.224e-05,0.0,0 STARLINK-3612,1 51770U 22017C   22364.45429527  .00002224  00000-0  15780-3 0  9991,2 51770  53.2164 170.0625 0002759  45.6079 314.5139 15.08839952 46701,6917.880999999999,95.438,541.654,537.837,0.0
51770.0,STARLINK-3612,PAYLOAD,2022-12-31 04:23:24,15.08854173,0.0002816,53.2172,166.7919,47.2341,312.8888,0.00024331,3.588e-05,0.0,0 STARLINK-3612,1 51770U 22017C   22365.18292524  .00003588  00000-0  24331-3 0  9993,2 51770  53.2172 166.7919 0002816  47.2341 312.8888 15.08854173 48258,6917.837,95.437,541.65,537.754,0.0
51770.0,STARLINK-3612,PAYLOAD,2022-12-31 10:44:57,15.08850596,0.0002811,53.2149,165.6031,48.4269,311.6963,0.00022894,3.358e-05,0.0,0 STARLINK-3612,1 51770U 22017C   22365.44788937  .00003358  00000-0  22894-3 0  9997,2 51770  53.2149 165.6031 0002811  48.4269 311.6963 15.08850596 48292,6917.848000000001,95.437,541.658,537.768,0.0
51770.0,STARLINK-3612,PAYLOAD,2022-12-31 17:06:30,15.08847647,0.0002891,53.2168,164.4132,49.9595,310.165,0.00013998,1.94e-05,0.0,0 STARLINK-3612,1 51770U 22017C   22365.71285021  .00001940  00000-0  13998-3 0  9993,2 51770  53.2168 164.4132 0002891  49.9595 310.1650 15.08847647 46892,6917.857,95.437,541.722,537.722,0.0
51770.0,STARLINK-3612,PAYLOAD,2023-01-01 04:14:12,15.08847191,0.00028,53.2154,162.3317,46.2617,313.8607,8.0326e-05,9.9e-06,0.0,0 STARLINK-3612,1 51770U 22017C   23001.17652791  .00000990  00000-0  80326-4 0  9997,2 51770  53.2154 162.3317 0002800  46.2617 313.8607 15.08847191 48409,6917.858,95.437,541.66,537.786,0.0
51770.0,STARLINK-3612,PAYLOAD,2023-01-01 10:35:44,15.08842547,0.0002874,53.215,161.1422,48.2639,311.8599,-2.7319e-05,-7.23e-06,0.0,0 STARLINK-3612,1 51770U 22017C   23001.44149009 -.00000723  00000-0 -27319-4 0  9999,2 51770  53.2150 161.1422 0002874  48.2639 311.8599 15.08842547 47009,6917.873000000001,95.437,541.726,537.749,0.0
51770.0,STARLINK-3612,PAYLOAD,2023-01-01 16:57:18,15.08832971,0.0002819,53.217,159.9523,48.1789,311.9443,-0.00011971,-2.193e-05,0.0,0 STARLINK-3612,1 51770U 22017C   23001.70646196 -.00002193  00000-0 -11971-3 0  9996,2 51770  53.2170 159.9523 0002819  48.1789 311.9443 15.08832971 47045,6917.901999999999,95.438,541.717,537.817,0.0
51770.0,STARLINK-3612,PAYLOAD,2023-01-02 13:37:18,15.08838404,0.0002767,53.2166,156.08700000000005,45.7259,314.396,3.4689e-05,2.64e-06,0.0,0 STARLINK-3612,1 51770U 22017C   23002.56757491  .00000264  00000-0  34689-4 0  9999,2 51770  53.2166 156.0870 0002767  45.7259 314.3960 15.08838404 48612,6917.885,95.438,541.664,537.836,0.0
51770.0,STARLINK-3612,PAYLOAD,2023-01-02 19:58:50,15.08841182,0.0002847,53.2167,154.8974,46.7045,313.4185,4.2987e-05,3.96e-06,0.0,0 STARLINK-3612,1 51770U 22017C   23002.83253352  .00000396  00000-0  42987-4 0  9992,2 51770  53.2167 154.8974 0002847  46.7045 313.4185 15.08841182 47218,6917.877,95.437,541.711,537.7719999999998,0.0
51770.0,STARLINK-3612,PAYLOAD,2023-01-03 10:17:19,15.08834332,0.0002734,53.2167,152.2211,44.2942,315.8269,0.00017895,2.56e-05,0.0,0 STARLINK-3612,1 51770U 22017C   23003.42869627  .00002560  00000-0  17895-3 0  9990,2 51770  53.2167 152.2211 0002734  44.2942 315.8269 15.08834332 47306,6917.898,95.438,541.654,537.871,0.0
51770.0,STARLINK-3612,PAYLOAD,2023-01-03 16:38:52,15.08834579,0.0002755,53.2168,151.0318,44.6273,315.4941,0.00017094,2.433e-05,0.0,0 STARLINK-3612,1 51770U 22017C   23003.69365774  .00002433  00000-0  17094-3 0  9993,2 51770  53.2168 151.0318 0002755  44.6273 315.4941 15.08834579 48785,6917.897,95.438,541.668,537.856,0.0
51770.0,STARLINK-3612,PAYLOAD,2023-01-04 08:32:43,15.08841774,0.0002802,53.2168,148.0582,45.6343,314.4878,9.03e-05,1.149e-05,0.0,0 STARLINK-3612,1 51770U 22017C   23004.35605806  .00001149  00000-0  90300-4 0  9995,2 51770  53.2168 148.0582 0002802  45.6343 314.4878 15.08841774 47441,6917.875,95.437,541.678,537.802,0.0
51770.0,STARLINK-3612,PAYLOAD,2023-01-04 16:29:38,15.08844905,0.0002823,53.2168,146.5715,46.24,313.8825,0.00010719,1.418e-05,0.0,0 STARLINK-3612,1 51770U 22017C   23004.68725507  .00001418  00000-0  10719-3 0  9996,2 51770  53.2168 146.5715 0002823  46.2400 313.8825 15.08844905 47495,6917.865,95.437,541.683,537.7769999999998,0.0
51770.0,STARLINK-3612,PAYLOAD,2023-01-05 08:23:29,15.08852807,0.0002901999999999,53.2193,143.5995,47.8697,312.2541,0.00019395,2.801e-05,0.0,0 STARLINK-3612,1 51770U 22017C   23005.34964695  .00002801  00000-0  19395-3 0  9999,2 51770  53.2193 143.5995 0002902  47.8697 312.2541 15.08852807 49033,6917.840999999999,95.437,541.714,537.6990000000002,0.0
51770.0,STARLINK-3612,PAYLOAD,2023-01-05 09:58:52,15.08852218,0.0002771,53.2201,143.30200000000005,50.3332,309.7905,0.00019747,2.857e-05,0.0,0 STARLINK-3612,1 51770U 22017C   23005.41588687  .00002857  00000-0  19747-3 0  9992,2 51770  53.2201 143.3020 0002771  50.3332 309.7905 15.08852218 47601,6917.843000000003,95.437,541.625,537.7909999999998,0.0
51770.0,STARLINK-3612,PAYLOAD,2023-01-05 17:55:48,15.08851863,0.0002735,53.2162,141.8137,40.4348,319.6847,0.00015991,2.258e-05,0.0,0 STARLINK-3612,1 51770U 22017C   23005.74708440  .00002258  00000-0  15991-3 0  9991,2 51770  53.2162 141.8137 0002735  40.4348 319.6847 15.08851863 47651,6917.844,95.437,541.601,537.817,0.0
51770.0,STARLINK-3612,PAYLOAD,2023-01-06 08:14:17,15.08837381,0.0002951,53.2162,139.136,42.0023,318.1195,-9.5489e-05,-1.808e-05,0.0,0 STARLINK-3612,1 51770U 22017C   23006.34325288 -.00001808  00000-0 -95489-4 0  9996,2 51770  53.2162 139.1360 0002951  42.0023 318.1195 15.08837381 49186,6917.888000000001,95.438,541.795,537.712,0.0
51770.0,STARLINK-3612,PAYLOAD,2023-01-06 09:49:40,15.08836345,0.0002707,53.2157,138.838,45.036,315.0851,-0.00011368,-2.097e-05,0.0,0 STARLINK-3612,1 51770U 22017C   23006.40949257 -.00002097  00000-0 -11368-3 0  9995,2 51770  53.2157 138.8380 0002707  45.0360 315.0851 15.08836345 47759,6917.892,95.438,541.629,537.884,0.0
51770.0,STARLINK-3612,PAYLOAD,2023-01-07 01:43:31,15.08836058,0.0002821,53.2163,135.8646,43.6043,316.5172,-0.00010871,-2.018e-05,0.0,0 STARLINK-3612,1 51770U 22017C   23007.07189506 -.00002018  00000-0 -10871-3 0  9993,2 51770  53.2163 135.8646 0002821  43.6043 316.5172 15.08836058 47851,6917.892,95.438,541.7090000000002,537.806,0.0
